{
  "links" : {
    "next" : "https://api.nasa.gov/neo/rest/v1/feed?start_date=2008-11-23&end_date=2008-11-23&detailed=true&api_key=t0TVs3DtDT2H8Oy2Zy8m2eVrNsAVKAexjcZXUckd",
    "prev" : "https://api.nasa.gov/neo/rest/v1/feed?start_date=2008-11-21&end_date=2008-11-21&detailed=true&api_key=t0TVs3DtDT2H8Oy2Zy8m2eVrNsAVKAexjcZXUckd",
    "self" : "https://api.nasa.gov/neo/rest/v1/feed?start_date=2008-11-22&end_date=2008-11-22&detailed=true&api_key=t0TVs3DtDT2H8Oy2Zy8m2eVrNsAVKAexjcZXUckd"
  },
  "element_count" : 6,
  "near_earth_objects" : {
    "2008-11-22" : [ {
      "links" : {
        "self" : "https://api.nasa.gov/neo/rest/v1/neo/3437790?api_key=t0TVs3DtDT2H8Oy2Zy8m2eVrNsAVKAexjcZXUckd"
      },
      "neo_reference_id" : "3437790",
      "name" : "(2008 VZ3)",
      "nasa_jpl_url" : "http://ssd.jpl.nasa.gov/sbdb.cgi?sstr=3437790",
      "absolute_magnitude_h" : 24.4,
      "estimated_diameter" : {
        "kilometers" : {
          "estimated_diameter_min" : 0.0350392641,
          "estimated_diameter_max" : 0.0783501764
        },
        "meters" : {
          "estimated_diameter_min" : 35.0392641108,
          "estimated_diameter_max" : 78.3501764334
        },
        "miles" : {
          "estimated_diameter_min" : 0.0217723826,
          "estimated_diameter_max" : 0.0486845275
        },
        "feet" : {
          "estimated_diameter_min" : 114.9582192654,
          "estimated_diameter_max" : 257.0543928497
        }
      },
      "is_potentially_hazardous_asteroid" : false,
      "close_approach_data" : [ {
        "close_approach_date" : "2008-11-22",
        "epoch_date_close_approach" : 1227340800000,
        "relative_velocity" : {
          "kilometers_per_second" : "10.6129274065",
          "kilometers_per_hour" : "38206.5386632643",
          "miles_per_hour" : "23740.0573155155"
        },
        "miss_distance" : {
          "astronomical" : "0.0146493386",
          "lunar" : "5.6985926628",
          "kilometers" : "2191510",
          "miles" : "1361741.125"
        },
        "orbiting_body" : "Earth"
      } ],
      "orbital_data" : {
        "orbit_id" : "16",
        "orbit_determination_date" : "2017-04-06 09:02:15",
        "orbit_uncertainty" : "8",
        "minimum_orbit_intersection" : ".0108651",
        "jupiter_tisserand_invariant" : "3.825",
        "epoch_osculation" : "2454779.5",
        "eccentricity" : ".524876129722199",
        "semi_major_axis" : "1.850539477150452",
        "inclination" : "3.576146723502879",
        "ascending_node_longitude" : "229.1250870931608",
        "orbital_period" : "919.4877723613877",
        "perihelion_distance" : ".8792354784855813",
        "perihelion_argument" : "237.4916965747519",
        "aphelion_distance" : "2.821843475815324",
        "perihelion_time" : "2454827.201503544726",
        "mean_anomaly" : "341.3237959304237",
        "mean_motion" : ".3915223353927415",
        "equinox" : "J2000"
      }
    }, {
      "links" : {
        "self" : "https://api.nasa.gov/neo/rest/v1/neo/3441126?api_key=t0TVs3DtDT2H8Oy2Zy8m2eVrNsAVKAexjcZXUckd"
      },
      "neo_reference_id" : "3441126",
      "name" : "(2008 XA2)",
      "nasa_jpl_url" : "http://ssd.jpl.nasa.gov/sbdb.cgi?sstr=3441126",
      "absolute_magnitude_h" : 21.4,
      "estimated_diameter" : {
        "kilometers" : {
          "estimated_diameter_min" : 0.1394938229,
          "estimated_diameter_max" : 0.3119176705
        },
        "meters" : {
          "estimated_diameter_min" : 139.4938229344,
          "estimated_diameter_max" : 311.9176705226
        },
        "miles" : {
          "estimated_diameter_min" : 0.0866774163,
          "estimated_diameter_max" : 0.1938165949
        },
        "feet" : {
          "estimated_diameter_min" : 457.6569140361,
          "estimated_diameter_max" : 1023.3519701574
        }
      },
      "is_potentially_hazardous_asteroid" : true,
      "close_approach_data" : [ {
        "close_approach_date" : "2008-11-22",
        "epoch_date_close_approach" : 1227340800000,
        "relative_velocity" : {
          "kilometers_per_second" : "13.9601708809",
          "kilometers_per_hour" : "50256.6151713624",
          "miles_per_hour" : "31227.5062435613"
        },
        "miss_distance" : {
          "astronomical" : "0.0800641801",
          "lunar" : "31.1449642181",
          "kilometers" : "11977431",
          "miles" : "7442430.5"
        },
        "orbiting_body" : "Earth"
      } ],
      "orbital_data" : {
        "orbit_id" : "15",
        "orbit_determination_date" : "2017-04-06 09:01:57",
        "orbit_uncertainty" : "7",
        "minimum_orbit_intersection" : ".00897711",
        "jupiter_tisserand_invariant" : "3.253",
        "epoch_osculation" : "2458000.5",
        "eccentricity" : ".6144100443985329",
        "semi_major_axis" : "2.379313414862299",
        "inclination" : "2.937029635152542",
        "ascending_node_longitude" : "39.67670007165633",
        "orbital_period" : "1340.528052583412",
        "perihelion_distance" : ".9174393539987292",
        "perihelion_argument" : "334.4795269856299",
        "aphelion_distance" : "3.841187475725869",
        "perihelion_time" : "2457438.118810515752",
        "mean_anomaly" : "151.0279682876921",
        "mean_motion" : ".2685508888129737",
        "equinox" : "J2000"
      }
    }, {
      "links" : {
        "self" : "https://api.nasa.gov/neo/rest/v1/neo/2085236?api_key=t0TVs3DtDT2H8Oy2Zy8m2eVrNsAVKAexjcZXUckd"
      },
      "neo_reference_id" : "2085236",
      "name" : "85236 (1993 KH)",
      "nasa_jpl_url" : "http://ssd.jpl.nasa.gov/sbdb.cgi?sstr=2085236",
      "absolute_magnitude_h" : 18.6,
      "estimated_diameter" : {
        "kilometers" : {
          "estimated_diameter_min" : 0.5064714588,
          "estimated_diameter_max" : 1.1325046106
        },
        "meters" : {
          "estimated_diameter_min" : 506.4714588346,
          "estimated_diameter_max" : 1132.5046106177
        },
        "miles" : {
          "estimated_diameter_min" : 0.3147066768,
          "estimated_diameter_max" : 0.7037055224
        },
        "feet" : {
          "estimated_diameter_min" : 1661.651821003,
          "estimated_diameter_max" : 3715.566426699
        }
      },
      "is_potentially_hazardous_asteroid" : true,
      "close_approach_data" : [ {
        "close_approach_date" : "2008-11-22",
        "epoch_date_close_approach" : 1227340800000,
        "relative_velocity" : {
          "kilometers_per_second" : "13.4257571493",
          "kilometers_per_hour" : "48332.7257374465",
          "miles_per_hour" : "30032.0761672484"
        },
        "miss_distance" : {
          "astronomical" : "0.099425657",
          "lunar" : "38.6765823364",
          "kilometers" : "14873867",
          "miles" : "9242192"
        },
        "orbiting_body" : "Earth"
      } ],
      "orbital_data" : {
        "orbit_id" : "78",
        "orbit_determination_date" : "2017-04-06 09:28:42",
        "orbit_uncertainty" : "0",
        "minimum_orbit_intersection" : ".00118835",
        "jupiter_tisserand_invariant" : "5.119",
        "epoch_osculation" : "2458000.5",
        "eccentricity" : ".3111886921828933",
        "semi_major_axis" : "1.233976567175179",
        "inclination" : "12.80492879466548",
        "ascending_node_longitude" : "54.39857977972615",
        "orbital_period" : "500.6783310112152",
        "perihelion_distance" : ".8499770130515989",
        "perihelion_argument" : "293.8497914234173",
        "aphelion_distance" : "1.617976121298759",
        "perihelion_time" : "2458247.074453134522",
        "mean_anomaly" : "182.7069205308997",
        "mean_motion" : ".7190245267313875",
        "equinox" : "J2000"
      }
    } ]
  }
}